NUSAT-1 (FRESCO)        
1 41557U 16033B   22218.57573936  .00006719  00000+0  19578-3 0  9990
2 41557  97.3901 316.3981 0010573 190.0085 294.4767 15.35669057345078
BEESAT-4                
1 41619U 16040W   22218.09177609  .00008188  00000+0  26511-3 0  9998
2 41619  97.2134 267.4242 0007370 303.4744  56.5793 15.32255059328328
CAS-2T & KS-1Q          
1 41847U 16066G   22218.42038709  .00000464  00000+0  78514-4 0  9993
2 41847  98.5480 283.0284 0364461  60.5369 303.1663 14.38677294301535
NAYIF-1 (EO-88)         
1 42017U 17008BX  22218.16286599  .00009425  00000+0  27133-3 0  9999
2 42017  97.2656 283.5935 0006238  77.5629 282.6313 15.35956408304706
ZHUHAI-1 02 (CAS-4B)    
1 42759U 17034B   22218.51759513  .00001460  00000+0  95881-4 0  9998
2 42759  43.0179  56.6843 0010168 250.9744 199.5953 15.12185784283930
ZHUHAI-1 01 (CAS-4A)    
1 42761U 17034D   22218.60615870  .00001656  00000+0  10676-3 0  9993
2 42761  43.0183  54.9463 0010732 251.7647 142.3075 15.12274304283955
MAX VALIER SAT          
1 42778U 17036P   22218.50820160  .00004874  00000+0  18259-3 0  9992
2 42778  97.2021 257.9019 0012050 141.2816 218.9289 15.27658250284548
RADFXSAT (FOX-1B)       
1 43017U 17073E   22218.21566460  .00002990  00000+0  22610-3 0  9991
2 43017  97.6689 110.3660 0248457  25.2189 336.0915 14.81709601254483
FOX-1D (AO-92)          
1 43137U 18004AC  22218.39611220  .00005431  00000+0  18858-3 0  9995
2 43137  97.3663 293.1245 0007841 173.0374 187.0977 15.30161786253989
DIWATA-2B               
1 43678U 18084H   22218.54037593  .00000681  00000+0  72497-4 0  9997
2 43678  97.9776 352.4126 0011115 116.4345 243.8031 14.92241660205329
ES'HAIL 2               
1 43700U 18090A   22218.23356900  .00000149  00000+0  00000+0 0  9997
2 43700   0.0129  97.8093 0001775  73.0093 253.7975  1.00271884 13526
FOX-1CLIFF (AO-95)      
1 43770U 18099N   22218.13546762  .00001785  00000+0  16121-3 0  9991
2 43770  97.6183 283.1941 0015850 107.7841 252.5111 14.96632736200446
ITASAT 1                
1 43786U 18099AE  22218.39176154  .00001370  00000+0  12456-3 0  9997
2 43786  97.6204 284.3891 0016376 101.0593 259.2472 14.96749084200527
JY1SAT (JO-97)          
1 43803U 18099AX  22218.12499680  .00001668  00000+0  14850-3 0  9990
2 43803  97.6165 283.8987 0016263 101.1027 259.2025 14.97286674200505
UWE-4                   
1 43880U 18111E   22218.28914026  .00002035  00000+0  17532-3 0  9992
2 43880  97.6641 123.7279 0013075 144.8094 215.3994 14.98372948197167
NEXUS (FO-99)           
1 43937U 19003F   22218.55409670  .00007603  00000+0  24938-3 0  9994
2 43937  97.1280 249.9807 0018922 339.8157  20.2335 15.31709894197641
PSAT2 (NO-104)          
1 44354U 19036R   22218.22255633  .00034967 -59369-5  27873-3 0  9999
2 44354  28.5228 191.9828 0214139 173.9888 186.3346 15.44429338172364
JAISAT-1                
1 44419U 19038F   22218.47996064  .00004977  00000+0  24754-3 0  9994
2 44419  97.6386 189.0365 0017670 323.4177  36.5848 15.17969108170642
DUCHIFAT-3              
1 44854U 19089C   22218.52398714  .00001395  00000+0  11236-3 0  9999
2 44854  36.9658 163.4436 0009387 272.9091  87.0582 15.01334245145466
CAS-6 (TO-108)          
1 44881U 19093C   22218.54988574  .00000202  00000+0  32226-4 0  9994
2 44881  97.8919 297.0393 0015727  27.9804 332.2252 14.81775475142190
RS-44 & BREEZE-KM R/B   
1 44909U 19096E   22218.46202479  .00000035  00000+0  95810-4 0  9994
2 44909  82.5211 197.0514 0216853 202.5332 156.6136 12.79714224121906
ORBITAL FACTORY 2 (OF-2)
1 45113U 19071C   22218.25383333  .00017239  00000+0  33657-3 0  9995
2 45113  51.6365 173.9276 0009687   5.0809 355.0275 15.47537905141086
HUSKYSAT-1 (HO-107)     
1 45119U 19071J   22218.09967168  .00016534  00000+0  33671-3 0  9990
2 45119  51.6364 175.1193 0009411   0.2723 359.8268 15.46345226141042
BY70-2                  
1 45857U 20042B   22218.58928034  .00002729  00000+0  36469-3 0  9991
2 45857  97.9552 294.9673 0008953 319.9812  40.0756 14.80313169112873
SALSAT                  
1 46495U 20068K   22218.44056626  .00001312  00000+0  97471-4 0  9990
2 46495  97.7315 159.7666 0018102 106.8361 253.4852 15.04682353101704
BY70-3                  
1 46839U 20079N   22218.51506486  .00012919  00000+0  28696-3 0  9993
2 46839  97.1949 290.0101 0006598 140.2890 345.4906 15.43797074 97965
RADFXSAT-2 (AO-109)     
1 47311U 21002C   22218.34302340  .00005801  00000+0  23317-3 0  9997
2 47311  60.6846 174.3471 0025766  15.3976 344.7890 15.25919635 86074
UVSQ-SAT                
1 47438U 21006AB  22218.38001126  .00003480  00000+0  18343-3 0  9997
2 47438  97.4340 276.3714 0013504 101.5434 258.7316 15.16163289 84844
DIY-1 (ARDUIQUBE)       
1 47963U 21022AH  22218.50577745  .00008694  00000+0  47113-3 0  9996
2 47963  97.5266 119.3177 0015199 327.1247  32.9038 15.14740785 74521
XW-3 (CAS-9)            
1 50466U 21131B   22218.53103531 -.00000015  00000+0  95691-5 0  9996
2 50466  98.5792 295.7586 0004482  16.9243 343.2093 14.38512845 32110
TEVEL-3                 
1 50988U 22002E   22218.44823389  .00003258  00000+0  17823-3 0  9993
2 50988  97.4789 284.6061 0008115 245.9647 244.3551 15.14943602 30984
TEVEL-8                 
1 50989U 22002F   22218.45388222  .00003270  00000+0  17910-3 0  9998
2 50989  97.4799 284.6345 0008117 245.3726 238.5307 15.14890941 30986
TEVEL-5                 
1 50998U 22002Q   22218.45191894  .00003321  00000+0  17910-3 0  9992
2 50998  97.4777 284.7302 0009689 241.6870 241.7628 15.15429729 30996
TEVEL-6                 
1 50999U 22002R   22218.45143218  .00003354  00000+0  18080-3 0  9995
2 50999  97.4767 284.7269 0009658 241.1494 242.2997 15.15434201 30997
TEVEL-1                 
1 51013U 22002AF  22218.45008395  .00003288  00000+0  17996-3 0  9990
2 51013  97.4785 284.5882 0008037 245.1893 238.7963 15.14918412 30983
TEVEL-7                 
1 51062U 22002CG  22218.45501534  .00003266  00000+0  17893-3 0  9999
2 51062  97.4794 284.6226 0008065 244.4469 236.8395 15.14881663 30987
TEVEL-4                 
1 51063U 22002CH  22218.65956625  .00003312  00000+0  18145-3 0  9990
2 51063  97.4796 284.8212 0008073 243.6817 268.4044 15.14874676 31017
TEVEL-2                 
1 51069U 22002CP  22218.44947043  .00003261  00000+0  17843-3 0  9994
2 51069  97.4786 284.5945 0008069 246.0095 244.2410 15.14935961 30981
